{"type": "FeatureCollection", "features": [ {"type": "Feature", "properties": {"norad_id": 66345, "name": "STARLINK-35440", "group": "last-30-days", "lat": 0.0947995380056458, "lon": 40.4922167480133, "alt_km": 413.75385699900835, "timestamp": "2025-12-03T04:52:28.418948+00:00", "meta": {"OBJECT_NAME": "STARLINK-35440", "OBJECT_ID": "2025-253AC", "EPOCH": "2025-12-02T13:24:57.374496", "MEAN_MOTION": 15.50624658, "ECCENTRICITY": 0.00023767, "INCLINATION": 43, "RA_OF_ASC_NODE": 44.1598, "ARG_OF_PERICENTER": 275.8194, "MEAN_ANOMALY": 84.2395, "EPHEMERIS_TYPE": 0, "CLASSIFICATION_TYPE": "U", "NORAD_CAT_ID": 66345, "ELEMENT_SET_NO": 999, "REV_AT_EPOCH": 535, "BSTAR": 0.0028550999, "MEAN_MOTION_DOT": 0.00171149, "MEAN_MOTION_DDOT": 0}, "tle": {"line1": "1 66345U 25253AC  25336.55899739  .00171149  00000+0  28551-2 0  9990", "line2": "2 66345  43.0000  44.1598 0002376 275.8194  84.2395 15.50624658  5354"}}, "geometry": {"type": "Point", "coordinates": [40.4922167480133, 0.0947995380056458]}}, {"type": "Feature", "properties": {"norad_id": 66346, "name": "STARLINK-35482", "group": "last-30-days", "lat": 1.2791008842897473, "lon": 41.75991123752602, "alt_km": 414.03018194076776, "timestamp": "2025-12-03T04:52:28.418959+00:00", "meta": {"OBJECT_NAME": "STARLINK-35482", "OBJECT_ID": "2025-253AD", "EPOCH": "2025-12-02T13:24:28.018368", "MEAN_MOTION": 15.50598874, "ECCENTRICITY": 0.00014869, "INCLINATION": 43.0008, "RA_OF_ASC_NODE": 44.1578, "ARG_OF_PERICENTER": 277.749, "MEAN_ANOMALY": 82.3202, "EPHEMERIS_TYPE": 0, "CLASSIFICATION_TYPE": "U", "NORAD_CAT_ID": 66346, "ELEMENT_SET_NO": 999, "REV_AT_EPOCH": 535, "BSTAR": 0.0016987354, "MEAN_MOTION_DOT": 0.00100677, "MEAN_MOTION_DDOT": 0}, "tle": {"line1": "1 66346U 25253AD  25336.55865762  .00100677  00000+0  16987-2 0  9998", "line2": "2 66346  43.0008  44.1578 0001486 277.7490  82.3202 15.50598874  5358"}}, "geometry": {"type": "Point", "coordinates": [41.75991123752602, 1.2791008842897473]}}, {"type": "Feature", "properties": {"norad_id": 66347, "name": "STARLINK-35438", "group": "last-30-days", "lat": 4.227078720741052, "lon": 44.92466231479255, "alt_km": 413.16041630635846, "timestamp": "2025-12-03T04:52:28.418969+00:00", "meta": {"OBJECT_NAME": "STARLINK-35438", "OBJECT_ID": "2025-253AE", "EPOCH": "2025-12-02T11:50:43.167552", "MEAN_MOTION": 15.50748022, "ECCENTRICITY": 0.00051686, "INCLINATION": 43.0001, "RA_OF_ASC_NODE": 44.5284, "ARG_OF_PERICENTER": 271.7306, "MEAN_ANOMALY": 88.2962, "EPHEMERIS_TYPE": 0, "CLASSIFICATION_TYPE": "U", "NORAD_CAT_ID": 66347, "ELEMENT_SET_NO": 999, "REV_AT_EPOCH": 534, "BSTAR": 0.0023229767, "MEAN_MOTION_DOT": 0.00139273, "MEAN_MOTION_DDOT": 0}, "tle": {"line1": "1 66347U 25253AE  25336.49355518  .00139273  00000+0  23230-2 0  9998", "line2": "2 66347  43.0001  44.5284 0005168 271.7306  88.2962 15.50748022  5340"}}, "geometry": {"type": "Point", "coordinates": [44.92466231479255, 4.227078720741052]}}, {"type": "Feature", "properties": {"norad_id": 66348, "name": "STARLINK-35849", "group": "last-30-days", "lat": 4.151996365197259, "lon": 139.26572792617006, "alt_km": 375.2651479637898, "timestamp": "2025-12-03T04:52:28.418980+00:00", "meta": {"OBJECT_NAME": "STARLINK-35849", "OBJECT_ID": "2025-254A", "EPOCH": "2025-12-02T20:00:03.000384", "MEAN_MOTION": 15.66013771, "ECCENTRICITY": 0.0001211, "INCLINATION": 53.1594, "RA_OF_ASC_NODE": 324.1966, "ARG_OF_PERICENTER": 105.3455, "MEAN_ANOMALY": 144.7903, "EPHEMERIS_TYPE": 0, "CLASSIFICATION_TYPE": "U", "NORAD_CAT_ID": 66348, "ELEMENT_SET_NO": 999, "REV_AT_EPOCH": 533, "BSTAR": -0.021956, "MEAN_MOTION_DOT": -0.02012148, "MEAN_MOTION_DDOT": 0}, "tle": {"line1": "1 66348U 25254A   25336.83336806 -.02012148  00000+0 -21956-1 0  9994", "line2": "2 66348  53.1594 324.1966 0001211 105.3455 144.7903 15.66013771  5331"}}, "geometry": {"type": "Point", "coordinates": [139.26572792617006, 4.151996365197259]}}, {"type": "Feature", "properties": {"norad_id": 66349, "name": "STARLINK-35848", "group": "last-30-days", "lat": 2.619873033564078, "lon": 140.41516290792924, "alt_km": 375.50190961927456, "timestamp": "2025-12-03T04:52:28.418990+00:00", "meta": {"OBJECT_NAME": "STARLINK-35848", "OBJECT_ID": "2025-254B", "EPOCH": "2025-12-02T20:00:03.000384", "MEAN_MOTION": 15.6601233, "ECCENTRICITY": 0.0001205, "INCLINATION": 53.1593, "RA_OF_ASC_NODE": 324.1921, "ARG_OF_PERICENTER": 105.196, "MEAN_ANOMALY": 146.8559, "EPHEMERIS_TYPE": 0, "CLASSIFICATION_TYPE": "U", "NORAD_CAT_ID": 66349, "ELEMENT_SET_NO": 999, "REV_AT_EPOCH": 533, "BSTAR": -0.021916, "MEAN_MOTION_DOT": -0.02008861, "MEAN_MOTION_DDOT": 0}, "tle": {"line1": "1 66349U 25254B   25336.83336806 -.02008861  00000+0 -21916-1 0  9998", "line2": "2 66349  53.1593 324.1921 0001205 105.1960 146.8559 15.66012330  5334"}}, "geometry": {"type": "Point", "coordinates": [140.41516290792924, 2.619873033564078]}}, {"type": "Feature", "properties": {"norad_id": 66350, "name": "STARLINK-35829", "group": "last-30-days", "lat": 1.0867578910851878, "lon": 141.56195626116406, "alt_km": 375.72338785304873, "timestamp": "2025-12-03T04:52:28.419000+00:00", "meta": {"OBJECT_NAME": "STARLINK-35829", "OBJECT_ID": "2025-254C", "EPOCH": "2025-12-02T20:00:03.000384", "MEAN_MOTION": 15.66011231, "ECCENTRICITY": 0.0001191, "INCLINATION": 53.1595, "RA_OF_ASC_NODE": 324.1878, "ARG_OF_PERICENTER": 106.3457, "MEAN_ANOMALY": 147.6227, "EPHEMERIS_TYPE": 0, "CLASSIFICATION_TYPE": "U", "NORAD_CAT_ID": 66350, "ELEMENT_SET_NO": 999, "REV_AT_EPOCH": 533, "BSTAR": -0.021888, "MEAN_MOTION_DOT": -0.02006517, "MEAN_MOTION_DDOT": 0}, "tle": {"line1": "1 66350U 25254C   25336.83336806 -.02006517  00000+0 -21888-1 0  9994", "line2": "2 66350  53.1595 324.1878 0001191 106.3457 147.6227 15.66011231  5337"}}, "geometry": {"type": "Point", "coordinates": [141.56195626116406, 1.0867578910851878]}}, {"type": "Feature", "properties": {"norad_id": 66351, "name": "STARLINK-35828", "group": "last-30-days", "lat": -0.44812587087778716, "lon": 142.70895626011628, "alt_km": 375.96551234719755, "timestamp": "2025-12-03T04:52:28.419012+00:00", "meta": {"OBJECT_NAME": "STARLINK-35828", "OBJECT_ID": "2025-254D", "EPOCH": "2025-12-02T20:00:03.000384", "MEAN_MOTION": 15.66011982, "ECCENTRICITY": 0.0001219, "INCLINATION": 53.1594, "RA_OF_ASC_NODE": 324.1839, "ARG_OF_PERICENTER": 105.4464, "MEAN_ANOMALY": 150.441, "EPHEMERIS_TYPE": 0, "CLASSIFICATION_TYPE": "U", "NORAD_CAT_ID": 66351, "ELEMENT_SET_NO": 999, "REV_AT_EPOCH": 530, "BSTAR": -0.021936, "MEAN_MOTION_DOT": -0.02010427, "MEAN_MOTION_DDOT": 0}, "tle": {"line1": "1 66351U 25254D   25336.83336806 -.02010427  00000+0 -21936-1 0  9994", "line2": "2 66351  53.1594 324.1839 0001219 105.4464 150.4410 15.66011982  5309"}}, "geometry": {"type": "Point", "coordinates": [142.70895626011628, -0.44812587087778716]}}, {"type": "Feature", "properties": {"norad_id": 66352, "name": "STARLINK-35850", "group": "last-30-days", "lat": -1.9821697419152409, "lon": 143.855443440446, "alt_km": 376.18045601269296, "timestamp": "2025-12-03T04:52:28.419025+00:00", "meta": {"OBJECT_NAME": "STARLINK-35850", "OBJECT_ID": "2025-254E", "EPOCH": "2025-12-02T20:00:03.000384", "MEAN_MOTION": 15.66016062, "ECCENTRICITY": 0.0001257, "INCLINATION": 53.1593, "RA_OF_ASC_NODE": 324.1795, "ARG_OF_PERICENTER": 105.6647, "MEAN_ANOMALY": 152.1366, "EPHEMERIS_TYPE": 0, "CLASSIFICATION_TYPE": "U", "NORAD_CAT_ID": 66352, "ELEMENT_SET_NO": 999, "REV_AT_EPOCH": 528, "BSTAR": -0.021983, "MEAN_MOTION_DOT": -0.02014529, "MEAN_MOTION_DDOT": 0}, "tle": {"line1": "1 66352U 25254E   25336.83336806 -.02014529  00000+0 -21983-1 0  9994", "line2": "2 66352  53.1593 324.1795 0001257 105.6647 152.1366 15.66016062  5287"}}, "geometry": {"type": "Point", "coordinates": [143.855443440446, -1.9821697419152409]}}, {"type": "Feature", "properties": {"norad_id": 66353, "name": "STARLINK-35869", "group": "last-30-days", "lat": -3.5133416106345194, "lon": 145.00273039415242, "alt_km": 376.4582363055115, "timestamp": "2025-12-03T04:52:28.419035+00:00", "meta": {"OBJECT_NAME": "STARLINK-35869", "OBJECT_ID": "2025-254F", "EPOCH": "2025-12-02T20:00:03.000384", "MEAN_MOTION": 15.66008153, "ECCENTRICITY": 0.0001204, "INCLINATION": 53.1591, "RA_OF_ASC_NODE": 324.1753, "ARG_OF_PERICENTER": 100.7063, "MEAN_ANOMALY": 159.0137, "EPHEMERIS_TYPE": 0, "CLASSIFICATION_TYPE": "U", "NORAD_CAT_ID": 66353, "ELEMENT_SET_NO": 999, "REV_AT_EPOCH": 533, "BSTAR": -0.021844, "MEAN_MOTION_DOT": -0.02002766, "MEAN_MOTION_DDOT": 0}, "tle": {"line1": "1 66353U 25254F   25336.83336806 -.02002766  00000+0 -21844-1 0  9991", "line2": "2 66353  53.1591 324.1753 0001204 100.7063 159.0137 15.66008153  5330"}}, "geometry": {"type": "Point", "coordinates": [145.00273039415242, -3.5133416106345194]}}, {"type": "Feature", "properties": {"norad_id": 66354, "name": "STARLINK-35895", "group": "last-30-days", "lat": 24.204248730608068, "lon": -17.63000915952482, "alt_km": 413.76810018818196, "timestamp": "2025-12-03T04:52:28.419045+00:00", "meta": {"OBJECT_NAME": "STARLINK-35895", "OBJECT_ID": "2025-254G", "EPOCH": "2025-12-02T20:00:03.000384", "MEAN_MOTION": 15.52299062, "ECCENTRICITY": 0.0001804, "INCLINATION": 53.1586, "RA_OF_ASC_NODE": 324.4476, "ARG_OF_PERICENTER": 94.6139, "MEAN_ANOMALY": 30.5137, "EPHEMERIS_TYPE": 0, "CLASSIFICATION_TYPE": "U", "NORAD_CAT_ID": 66354, "ELEMENT_SET_NO": 999, "REV_AT_EPOCH": 533, "BSTAR": -0.053394, "MEAN_MOTION_DOT": -0.02875455, "MEAN_MOTION_DDOT": 0}, "tle": {"line1": "1 66354U 25254G   25336.83336806 -.02875455  00000+0 -53394-1 0  9990", "line2": "2 66354  53.1586 324.4476 0001804  94.6139  30.5137 15.52299062  5330"}}, "geometry": {"type": "Point", "coordinates": [-17.63000915952482, 24.204248730608068]}}]}